INTELSAT 11 (IS-11)     
1 32253C 07044B   22223.00000000 -.00000184  00000-0  00000-0 0  2235
2 32253   0.0000  99.1536 0002052  43.1187 134.1665  1.00277745    13
INTELSAT 11 (IS-11)     
1 32253C 07044B   22226.93123843 -.00000198  00000-0  00000-0 0  2269
2 32253   0.0183 226.2789 0001876 285.3459 103.9345  1.00270520    16
INTELSAT 11 (IS-11) [PM]
1 32253C 07044B   22228.92950232 -.00000193  00000-0  00000-0 0  2287
2 32253   0.0076 206.0340 0001676 308.1734 102.6928  1.00273169    19
HORIZONS-2              
1 32388C 07063B   22223.00000000  .00000160  00000-0  00000-0 0  2238
2 32388   0.0039  19.3805 0004640  77.2386 235.9005  0.99711529    19
HORIZONS-2              
1 32388C 07063B   22226.93123843  .00000176  00000-0  00000-0 0  2264
2 32388   0.0001  68.2944 0003995  32.0843 203.3358  0.99713314    18
HORIZONS-2          [PM]
1 32388C 07063B   22228.54166667 -.00003442  00000-0  00000-0 0  2286
2 32388   0.0379 298.2133 0003843 163.1155  60.4902  0.99713574    10
GALAXY 18 (G-18)        
1 32951C 08024A   22223.00000000  .00000095  00000-0  00000-0 0  2239
2 32951   0.0000 133.0120 0003477   9.5540  53.8560  1.00263499    18
GALAXY 18 (G-18)    [PM]
1 32951C 08024A   22224.52083333  .00000111  00000-0  00000-0 0  2247
2 32951   0.0000 129.6969 0003272  11.9245 243.7957  1.00271166    12
GALAXY 18 (G-18)        
1 32951C 08024A   22226.93123843  .00000115  00000-0  00000-0 0  2261
2 32951   0.0000 116.1341 0003024  32.3435  27.0629  1.00271869    19
GALAXY 18 (G-18)    [PM]
1 32951C 08024A   22231.60068287  .00000116  00000-0  00000-0 0  2318
2 32951   0.0045  89.7169 0002885  57.6999 273.7533  1.00271110    13
INTELSAT 25 (IS-25)     
1 33153C 08034A   22223.00000000 -.00000128  00000-0  00000-0 0  2233
2 33153   0.0135 132.3867 0003441  14.1445 141.4014  1.00270567    11
INTELSAT 25 (IS-25) [PM]
1 33153C 08034A   22226.34425926 -.00000134  00000-0  00000-0 0  2261
2 33153   0.0147 113.2635 0003251  25.1034 276.7879  1.00272385    11
INTELSAT 25 (IS-25)     
1 33153C 08034A   22226.93123843 -.00000134  00000-0  00000-0 0  2269
2 33153   0.0167 128.7163 0003209  21.4318 116.8979  1.00272171    15
GALAXY 19 (G-19)        
1 33376C 08045A   22223.00000000 -.00000051  00000-0  00000-0 0  2237
2 33376   0.0573 270.8414 0003422 236.1867  75.3997  1.00269560    19
GALAXY 19 (G-19)        
1 33376C 08045A   22226.93123843 -.00000050  00000-0  00000-0 0  2265
2 33376   0.0504 285.1800 0002918 224.4118  51.9623  1.00271528    12
GALAXY 19 (G-19)    [PM]
1 33376C 08045A   22230.06903935 -.00000049  00000-0  00000-0 0  2305
2 33376   0.0560 279.3682 0002826 237.0983  97.7877  1.00271988    14
INTELSAT 14 (IS-14)     
1 36097C 09064A   22223.00000000 -.00000183  00000-0  00000-0 0  2238
2 36097   0.0082 103.1837 0002907  38.9992 132.2517  1.00270017    18
INTELSAT 14 (IS-14)     
1 36097C 09064A   22226.93123843 -.00000183  00000-0  00000-0 0  2267
2 36097   0.0145 106.4497 0002615  45.8646 101.2397  1.00272460    11
INTELSAT 14 (IS-14) [PM]
1 36097C 09064A   22229.98789352 -.00000206  00000-0  00000-0 0  2297
2 36097   0.0072 211.5768 0002421 310.3494 115.0441  1.00271096    12
INTELSAT 15 (IS-15)     
1 36106C 09067A   22223.00000000 -.00000216  00000-0  00000-0 0  2239
2 36106   0.0427 280.7934 0002835 224.9261 258.8569  1.00269071    18
INTELSAT 15 (IS-15)     
1 36106C 09067A   22226.93123843 -.00000099  00000-0  00000-0 0  2267
2 36106   0.0011  70.2477 0002550  87.1762 226.2728  1.00271946    10
INTELSAT 15 (IS-15) [PM]
1 36106C 09067A   22229.98707176 -.00000095  00000-0  00000-0 0  2291
2 36106   0.0137  53.9373 0002156  90.7566 262.1261  1.00272262    19
INTELSAT 16 (IS-16)     
1 36397C 10006A   22223.00000000 -.00000143  00000-0  00000-0 0  2235
2 36397   0.0417 278.1026 0002565 222.2762 102.8482  1.00267825    16
INTELSAT 16 (IS-16)     
1 36397C 10006A   22226.93123843 -.00000148  00000-0  00000-0 0  2269
2 36397   0.0000  85.9832 0002278  62.1715  74.1875  1.00271653    14
INTELSAT 16 (IS-16) [PM]
1 36397C 10006A   22229.88912037 -.00000155  00000-0  00000-0 0  2298
2 36397   0.0076  71.8758 0002012  80.8424  57.3785  1.00273625    12
INTELSAT 17 (IS-17)     
1 37238C 10065B   22223.00000000  .00000077  00000-0  00000-0 0  2230
2 37238   0.0494 252.2149 0002929 241.4895 251.7107  1.00270920    17
INTELSAT 17 (IS-17)     
1 37238C 10065B   22226.93123843  .00000070  00000-0  00000-0 0  2262
2 37238   0.0301 202.4153 0002645 306.2639 215.8559  1.00272244    10
INTELSAT 17 (IS-17) [PM]
1 37238C 10065B   22229.17968750  .00000089  00000-0  00000-0 0  2298
2 37238   0.0361 234.7467 0002484 278.7378 302.7163  1.00272360    12
INTELSAT NEW DAWN       
1 37392C 11016A   22223.00000000  .00000246  00000-0  00000-0 0  2236
2 37392   0.0162 146.2682 0001464 331.7094 234.2617  1.00270912    14
INTELSAT NEW DAWN       
1 37392C 11016A   22226.93123843  .00000246  00000-0  00000-0 0  2265
2 37392   0.0165 138.8752 0001760 338.9293 213.5363  1.00261947    17
INTELSAT NEW DAWN   [PM]
1 37392C 11016A   22233.08678241  .00000246  00000-0  00000-0 0  2334
2 37392   0.0130 171.1552 0000943 317.2950 264.9884  1.00270048    19
INTELSAT 18 (IS-18)     
1 37834C 11056A   22223.00000000  .00000142  00000-0  00000-0 0  2236
2 37834   0.0171  35.2350 0002415 105.5241 358.6714  1.00270105    15
INTELSAT 18 (IS-18)     
1 37834C 11056A   22226.93123843  .00000140  00000-0  00000-0 0  2263
2 37834   0.0389 323.7319 0002251 189.1312 325.6843  1.00269936    18
INTELSAT 18 (IS-18) [PM]
1 37834C 11056A   22228.30151620  .00000145  00000-0  00000-0 0  2287
2 37834   0.0370 322.9958 0002218 191.4368  98.7577  1.00271191    16
INTELSAT 22 (IS-22)     
1 38098C 12011A   22223.00000000 -.00000000  00000-0  00000-0 0  2235
2 38098   0.0001 137.0403 0003131  11.7090 242.7804  1.00270670    16
INTELSAT 22 (IS-22)     
1 38098C 12011A   22226.93123843  .00000028  00000-0  00000-0 0  2263
2 38098   0.0013 126.9159 0003020  34.8080 208.9173  1.00271427    10
INTELSAT 22 (IS-22) [PM]
1 38098C 12011A   22228.50895833  .00000032  00000-0  00000-0 0  2280
2 38098   0.0051  93.3736 0002714  53.9670  72.8390  1.00271666    10
INTELSAT 22 (IS-22) [PM]
1 38098C 12011A   22228.91776620  .00000015  00000-0  00000-0 0  2288
2 38098   0.0048 111.6588 0002830  51.8391 204.2541  1.00274230    10
INTELSAT 19 (IS-19)     
1 38356C 12030A   22223.00000000  .00000033  00000-0  00000-0 0  2238
2 38356   0.0124 103.8770 0003306  35.0981 346.4569  1.00270427    19
INTELSAT 19 (IS-19)     
1 38356C 12030A   22226.93123843  .00000180  00000-0  00000-0 0  2260
2 38356   0.0268 238.7701 0003250 269.8813 315.9046  1.00269898    10
INTELSAT 19 (IS-19) [PM]
1 38356C 12030A   22228.45138889 -.00000000  00000-0  00000-0 0  2289
2 38356   0.0218 237.9461 0003115 274.0632 141.2944  1.00271289    10
INTELSAT 20 (IS-20)     
1 38740C 12043A   22223.00000000  .00000066  00000-0  00000-0 0  2235
2 38740   0.0176 128.7736 0001584  45.4210 213.7263  1.00269819    17
INTELSAT 20 (IS-20)     
1 38740C 12043A   22227.00000000  .00000066  00000-0  00000-0 0  2273
2 38740   0.0122 146.2442 0001564  43.5625 202.0629  1.00271237    18
INTELSAT 20 (IS-20) [PM]
1 38740C 12043A   22229.25181713  .00000066  00000-0  00000-0 0  2295
2 38740   0.0081 116.0639 0001652  59.9449 308.7276  1.00272292    12
INTELSAT 21 (IS-21)     
1 38749C 12045A   22223.00000000 -.00000195  00000-0  00000-0 0  2230
2 38749   0.0096  98.4467 0002528  38.6005 124.3794  1.00272335    19
INTELSAT 21 (IS-21)     
1 38749C 12045A   22226.93123843 -.00000195  00000-0  00000-0 0  2269
2 38749   0.0160 102.3173 0002280  49.9900  88.2477  1.00271504    17
INTELSAT 21 (IS-21) [PM]
1 38749C 12045A   22229.86854167 -.00000207  00000-0  00000-0 0  2291
2 38749   0.0014 188.8636 0002163 328.8669  63.1390  1.00273185    12
INTELSAT 23 (IS-23)     
1 38867C 12057A   22223.00000000 -.00000190  00000-0  00000-0 0  2239
2 38867   0.0114 125.1211 0001263  33.8363 107.4853  1.00264965    13
INTELSAT 23 (IS-23)     
1 38867C 12057A   22226.93123843 -.00000195  00000-0  00000-0 0  2263
2 38867   0.0139 125.8896 0000707 239.5574 240.1073  1.00273157    19
INTELSAT 23 (IS-23) [PM]
1 38867C 12057A   22227.59444444 -.00000195  00000-0  00000-0 0  2270
2 38867   0.0035 121.3743 0000471  49.5223 314.0851  1.00269417    13
INTELSAT 23 (IS-23) [PM]
1 38867C 12057A   22230.25339120 -.00000195  00000-0  00000-0 0  2305
2 38867   0.0028 109.2812 0001472 236.4233  19.1259  1.00272245    15
INTELSAT 30 (IS-30)     
1 40271C 14062A   22223.00000000 -.00003484  00000-0  00000-0 0  2238
2 40271   0.0462 267.6532 0002224 177.5906 139.1352  1.00269863    14
INTELSAT 30 (IS-30)     
1 40271C 14062A   22227.00000000 -.00003356  00000-0  00000-0 0  2274
2 40271   0.0000 161.7747 0001918 280.4873 146.0625  1.00270439    11
INTELSAT 30 (IS-30) [PM]
1 40271C 14062A   22230.18435185 -.00000084  00000-0  00000-0 0  2302
2 40271   0.0262 286.9120 0001762 138.1373 232.7766  1.00273115    10
INTELSAT 34 (IS-34)     
1 40874C 15039A   22223.00000000 -.00000193  00000-0  00000-0 0  2236
2 40874   0.0155 353.6523 0000840  67.1053 203.1906  1.00268716    10
INTELSAT 34 (IS-34)     
1 40874C 15039A   22227.00000000 -.00000238  00000-0  00000-0 0  2274
2 40874   0.0242 286.9057 0000412 143.1437 197.8421  1.00270567    11
INTELSAT 34 (IS-34) [PM]
1 40874C 15039A   22231.06409722 -.00004318  00000-0  00000-0 0  2317
2 40874   0.0376 290.6176 0000715  73.3538 290.9996  1.00273379    11
INTELSAT 31 (IS-31)     
1 41581C 16035A   22223.00000000 -.00000060  00000-0  00000-0 0  2232
2 41581   0.0275 200.8494 0000888  17.1189   6.4136  1.00268934    17
INTELSAT 31 (IS-31) [PM]
1 41581C 16035A   22223.35960648 -.00000067  00000-0  00000-0 0  2230
2 41581   0.0256 197.7949 0000927  16.7970 139.5970  1.00272257    19
